ONEWEB-0517             
1 54135U 22138Y   23318.00890756 -.00000186  00000+0 -49641-3 0  9999
2 54135  87.9174 133.3013 0001549  74.6758 285.4546 13.19727342 52905
ONEWEB-0518             
1 54136U 22138Z   23317.72460984  .00000103  00000+0  22424-3 0  9991
2 54136  87.9181 133.3573 0001759  84.4302 275.7032 13.19725083 51992
ONEWEB-0519             
1 54137U 22138AA  23318.50804947  .00000119  00000+0  26439-3 0  9997
2 54137  87.9174 133.1995 0001669  71.2407 288.8907 13.19725566 52972
ONEWEB-0520             
1 54138U 22138AB  23317.78464211 -.00000066  00000+0 -19663-3 0  9997
2 54138  87.9172 133.3456 0001274  66.9731 293.1536 13.19723372 51999
ONEWEB-0521             
1 54139U 22138AC  23318.50016417  .00000067  00000+0  13606-3 0  9990
2 54139  87.9173 133.1995 0001887  84.8093 275.3255 13.19726841 52936
ONEWEB-0522             
1 54140U 22138AD  23317.79725793  .00000018  00000+0  12239-4 0  9994
2 54140  87.9174 133.3415 0001409  86.4019 273.7275 13.19724598 51989
ONEWEB-0523             
1 54141U 22138AE  23318.43474246  .00000125  00000+0  27595-3 0  9990
2 54141  87.9174 102.7079 0002397 119.2407 240.8967 13.20771752 55331
ONEWEB-0524             
1 54142U 22138AF  23317.81605711 -.00000008  00000+0 -50458-4 0  9992
2 54142  87.9199 102.8234 0001413 142.2001 217.9232 13.20770266 54380
